ONEWEB-0297             
1 49086U 21075M   25259.11569165 -.00000189  00000+0 -56001-3 0  9993
2 49086  87.8895  45.1480 0001785  95.0160 265.1173 13.12443482199239
ONEWEB-0298             
1 49087U 21075N   25258.98658377  .00000017  00000+0  11778-4 0  9993
2 49087  87.9046  60.4145 0001751  90.6966 269.4367 13.17647597197514
ONEWEB-0299             
1 49088U 21075P   25259.21594410 -.00000097  00000+0 -28272-3 0  9994
2 49088  87.9050  60.3258 0001964  92.5538 267.5818 13.17650264197522
ONEWEB-0300             
1 49089U 21075Q   25259.10759445  .00000100  00000+0  24333-3 0  9991
2 49089  87.8905  45.1027 0001646  83.8216 276.3100 13.12442646199251
ONEWEB-0301             
1 49090U 21075R   25259.16761169  .00000451  00000+0  12178-2 0  9997
2 49090  87.8902  45.0952 0001602  80.4866 279.6443 13.12443506198624
ONEWEB-0302             
1 49091U 21075S   25259.23085672  .00001310  00000+0  36047-2 0  9990
2 49091  87.8904  45.0888 0001894 130.6476 229.4817 13.12440394198612
ONEWEB-0304             
1 49092U 21075T   25259.19063946 -.00000007  00000+0 -50862-4 0  9993
2 49092  87.9052  60.3614 0001875  94.8120 265.3226 13.17648918197496
ONEWEB-0305             
1 49093U 21075U   25258.95608298  .00000045  00000+0  83665-4 0  9999
2 49093  87.9051  60.3849 0002139  94.8571 265.2805 13.17647194197497
ONEWEB-0308             
1 49094U 21075V   25259.14814040  .00000016  00000+0  87170-5 0  9990
2 49094  87.8905  45.0972 0001645  95.7982 264.3334 13.12445402198614
ONEWEB-0309             
1 49095U 21075W   25259.18726254 -.00000019  00000+0 -81013-4 0  9998
2 49095  87.9050  60.3558 0001750 107.4162 252.7161 13.17648721197493
ONEWEB-0310             
1 49096U 21075X   25259.16274100  .00000482  00000+0  13056-2 0  9997
2 49096  87.8896  45.1388 0001677  99.8322 260.2996 13.12444121199241
ONEWEB-0311             
1 49097U 21075Y   25259.19400975  .00000035  00000+0  57749-4 0  9995
2 49097  87.9045  60.3521 0002120  91.4137 268.7238 13.17649653197548
ONEWEB-0312             
1 49098U 21075Z   25259.20920159  .00000081  00000+0  17652-3 0  9998
2 49098  87.9041  60.3808 0002005 100.0820 260.0538 13.17649023197528
ONEWEB-0313             
1 49099U 21075AA  25259.21413183  .00000058  00000+0  11602-3 0  9997
2 49099  87.9034  60.3911 0001824  93.4465 266.6875 13.17649742197517
ONEWEB-0314             
1 49100U 21075AB  25259.18051488 -.00000003  00000+0 -40945-4 0  9997
2 49100  87.9053  60.3370 0002069  98.8671 261.2695 13.17649193197487
ONEWEB-0315             
1 49101U 21075AC  25259.13678602 -.00000370  00000+0 -10625-2 0  9993
2 49101  87.8899  45.0894 0001998  89.6422 270.4936 13.12444133199224
ONEWEB-0316             
1 49102U 21075AD  25259.09295430  .00000032  00000+0  48531-4 0  9995
2 49102  87.9193  29.8946 0001857  94.1270 266.0075 13.18686960201082
