[{"OBJECT_NAME":"ONEWEB-0297","OBJECT_ID":"2021-075M","EPOCH":"2025-09-16T02:46:35.758560","MEAN_MOTION":13.12443482,"ECCENTRICITY":0.00017853,"INCLINATION":87.8895,"RA_OF_ASC_NODE":45.148,"ARG_OF_PERICENTER":95.016,"MEAN_ANOMALY":265.1173,"EPHEMERIS_TYPE":0,"CLASSIFICATION_TYPE":"U","NORAD_CAT_ID":49086,"ELEMENT_SET_NO":999,"REV_AT_EPOCH":19923,"BSTAR":-0.00056000767,"MEAN_MOTION_DOT":-1.89e-6,"MEAN_MOTION_DDOT":0},{"OBJECT_NAME":"ONEWEB-0298","OBJECT_ID":"2021-075N","EPOCH":"2025-09-15T23:40:40.837728","MEAN_MOTION":13.17647597,"ECCENTRICITY":0.00017513,"INCLINATION":87.9046,"RA_OF_ASC_NODE":60.4145,"ARG_OF_PERICENTER":90.6966,"MEAN_ANOMALY":269.4367,"EPHEMERIS_TYPE":0,"CLASSIFICATION_TYPE":"U","NORAD_CAT_ID":49087,"ELEMENT_SET_NO":999,"REV_AT_EPOCH":19751,"BSTAR":1.1777733e-5,"MEAN_MOTION_DOT":1.7e-7,"MEAN_MOTION_DDOT":0},{"OBJECT_NAME":"ONEWEB-0299","OBJECT_ID":"2021-075P","EPOCH":"2025-09-16T05:10:57.570240","MEAN_MOTION":13.17650264,"ECCENTRICITY":0.00019648,"INCLINATION":87.905,"RA_OF_ASC_NODE":60.3258,"ARG_OF_PERICENTER":92.5538,"MEAN_ANOMALY":267.5818,"EPHEMERIS_TYPE":0,"CLASSIFICATION_TYPE":"U","NORAD_CAT_ID":49088,"ELEMENT_SET_NO":999,"REV_AT_EPOCH":19752,"BSTAR":-0.00028271633,"MEAN_MOTION_DOT":-9.7e-7,"MEAN_MOTION_DDOT":0},{"OBJECT_NAME":"ONEWEB-0300","OBJECT_ID":"2021-075Q","EPOCH":"2025-09-16T02:34:56.160480","MEAN_MOTION":13.12442646,"ECCENTRICITY":0.00016466,"INCLINATION":87.8905,"RA_OF_ASC_NODE":45.1027,"ARG_OF_PERICENTER":83.8216,"MEAN_ANOMALY":276.31,"EPHEMERIS_TYPE":0,"CLASSIFICATION_TYPE":"U","NORAD_CAT_ID":49089,"ELEMENT_SET_NO":999,"REV_AT_EPOCH":19925,"BSTAR":0.00024333386,"MEAN_MOTION_DOT":1.0e-6,"MEAN_MOTION_DDOT":0},{"OBJECT_NAME":"ONEWEB-0301","OBJECT_ID":"2021-075R","EPOCH":"2025-09-16T04:01:21.650016","MEAN_MOTION":13.12443506,"ECCENTRICITY":0.00016022,"INCLINATION":87.8902,"RA_OF_ASC_NODE":45.0952,"ARG_OF_PERICENTER":80.4866,"MEAN_ANOMALY":279.6443,"EPHEMERIS_TYPE":0,"CLASSIFICATION_TYPE":"U","NORAD_CAT_ID":49090,"ELEMENT_SET_NO":999,"REV_AT_EPOCH":19862,"BSTAR":0.0012177729,"MEAN_MOTION_DOT":4.51e-6,"MEAN_MOTION_DDOT":0},{"OBJECT_NAME":"ONEWEB-0302","OBJECT_ID":"2021-075S","EPOCH":"2025-09-16T05:32:26.020608","MEAN_MOTION":13.12440394,"ECCENTRICITY":0.00018947,"INCLINATION":87.8904,"RA_OF_ASC_NODE":45.0888,"ARG_OF_PERICENTER":130.6476,"MEAN_ANOMALY":229.4817,"EPHEMERIS_TYPE":0,"CLASSIFICATION_TYPE":"U","NORAD_CAT_ID":49091,"ELEMENT_SET_NO":999,"REV_AT_EPOCH":19861,"BSTAR":0.0036047268,"MEAN_MOTION_DOT":1.31e-5,"MEAN_MOTION_DDOT":0},{"OBJECT_NAME":"ONEWEB-0304","OBJECT_ID":"2021-075T","EPOCH":"2025-09-16T04:34:31.249344","MEAN_MOTION":13.17648918,"ECCENTRICITY":0.00018754,"INCLINATION":87.9052,"RA_OF_ASC_NODE":60.3614,"ARG_OF_PERICENTER":94.812,"MEAN_ANOMALY":265.3226,"EPHEMERIS_TYPE":0,"CLASSIFICATION_TYPE":"U","NORAD_CAT_ID":49092,"ELEMENT_SET_NO":999,"REV_AT_EPOCH":19749,"BSTAR":-5.0862479e-5,"MEAN_MOTION_DOT":-7.0e-8,"MEAN_MOTION_DDOT":0},{"OBJECT_NAME":"ONEWEB-0305","OBJECT_ID":"2021-075U","EPOCH":"2025-09-15T22:56:45.569472","MEAN_MOTION":13.17647194,"ECCENTRICITY":0.0002139,"INCLINATION":87.9051,"RA_OF_ASC_NODE":60.3849,"ARG_OF_PERICENTER":94.8571,"MEAN_ANOMALY":265.2805,"EPHEMERIS_TYPE":0,"CLASSIFICATION_TYPE":"U","NORAD_CAT_ID":49093,"ELEMENT_SET_NO":999,"REV_AT_EPOCH":19749,"BSTAR":8.3665487e-5,"MEAN_MOTION_DOT":4.5e-7,"MEAN_MOTION_DDOT":0},{"OBJECT_NAME":"ONEWEB-0308","OBJECT_ID":"2021-075V","EPOCH":"2025-09-16T03:33:19.330560","MEAN_MOTION":13.12445402,"ECCENTRICITY":0.00016452,"INCLINATION":87.8905,"RA_OF_ASC_NODE":45.0972,"ARG_OF_PERICENTER":95.7982,"MEAN_ANOMALY":264.3334,"EPHEMERIS_TYPE":0,"CLASSIFICATION_TYPE":"U","NORAD_CAT_ID":49094,"ELEMENT_SET_NO":999,"REV_AT_EPOCH":19861,"BSTAR":8.716974e-6,"MEAN_MOTION_DOT":1.6e-7,"MEAN_MOTION_DDOT":0},{"OBJECT_NAME":"ONEWEB-0309","OBJECT_ID":"2021-075W","EPOCH":"2025-09-16T04:29:39.483456","MEAN_MOTION":13.17648721,"ECCENTRICITY":0.00017509,"INCLINATION":87.905,"RA_OF_ASC_NODE":60.3558,"ARG_OF_PERICENTER":107.4162,"MEAN_ANOMALY":252.7161,"EPHEMERIS_TYPE":0,"CLASSIFICATION_TYPE":"U","NORAD_CAT_ID":49095,"ELEMENT_SET_NO":999,"REV_AT_EPOCH":19749,"BSTAR":-8.1013201e-5,"MEAN_MOTION_DOT":-1.9e-7,"MEAN_MOTION_DDOT":0},{"OBJECT_NAME":"ONEWEB-0310","OBJECT_ID":"2021-075X","EPOCH":"2025-09-16T03:54:20.822400","MEAN_MOTION":13.12444121,"ECCENTRICITY":0.00016771,"INCLINATION":87.8896,"RA_OF_ASC_NODE":45.1388,"ARG_OF_PERICENTER":99.8322,"MEAN_ANOMALY":260.2996,"EPHEMERIS_TYPE":0,"CLASSIFICATION_TYPE":"U","NORAD_CAT_ID":49096,"ELEMENT_SET_NO":999,"REV_AT_EPOCH":19924,"BSTAR":0.0013056141,"MEAN_MOTION_DOT":4.82e-6,"MEAN_MOTION_DDOT":0},{"OBJECT_NAME":"ONEWEB-0311","OBJECT_ID":"2021-075Y","EPOCH":"2025-09-16T04:39:22.442400","MEAN_MOTION":13.17649653,"ECCENTRICITY":0.00021207,"INCLINATION":87.9045,"RA_OF_ASC_NODE":60.3521,"ARG_OF_PERICENTER":91.4137,"MEAN_ANOMALY":268.7238,"EPHEMERIS_TYPE":0,"CLASSIFICATION_TYPE":"U","NORAD_CAT_ID":49097,"ELEMENT_SET_NO":999,"REV_AT_EPOCH":19754,"BSTAR":5.7748937e-5,"MEAN_MOTION_DOT":3.5e-7,"MEAN_MOTION_DDOT":0},{"OBJECT_NAME":"ONEWEB-0312","OBJECT_ID":"2021-075Z","EPOCH":"2025-09-16T05:01:15.017376","MEAN_MOTION":13.17649023,"ECCENTRICITY":0.00020051,"INCLINATION":87.9041,"RA_OF_ASC_NODE":60.3808,"ARG_OF_PERICENTER":100.082,"MEAN_ANOMALY":260.0538,"EPHEMERIS_TYPE":0,"CLASSIFICATION_TYPE":"U","NORAD_CAT_ID":49098,"ELEMENT_SET_NO":999,"REV_AT_EPOCH":19752,"BSTAR":0.00017652187,"MEAN_MOTION_DOT":8.1e-7,"MEAN_MOTION_DDOT":0},{"OBJECT_NAME":"ONEWEB-0313","OBJECT_ID":"2021-075AA","EPOCH":"2025-09-16T05:08:20.990112","MEAN_MOTION":13.17649742,"ECCENTRICITY":0.00018249,"INCLINATION":87.9034,"RA_OF_ASC_NODE":60.3911,"ARG_OF_PERICENTER":93.4465,"MEAN_ANOMALY":266.6875,"EPHEMERIS_TYPE":0,"CLASSIFICATION_TYPE":"U","NORAD_CAT_ID":49099,"ELEMENT_SET_NO":999,"REV_AT_EPOCH":19751,"BSTAR":0.00011601889,"MEAN_MOTION_DOT":5.8e-7,"MEAN_MOTION_DDOT":0},{"OBJECT_NAME":"ONEWEB-0314","OBJECT_ID":"2021-075AB","EPOCH":"2025-09-16T04:19:56.485632","MEAN_MOTION":13.17649193,"ECCENTRICITY":0.00020699,"INCLINATION":87.9053,"RA_OF_ASC_NODE":60.337,"ARG_OF_PERICENTER":98.8671,"MEAN_ANOMALY":261.2695,"EPHEMERIS_TYPE":0,"CLASSIFICATION_TYPE":"U","NORAD_CAT_ID":49100,"ELEMENT_SET_NO":999,"REV_AT_EPOCH":19748,"BSTAR":-4.094524e-5,"MEAN_MOTION_DOT":-3.0e-8,"MEAN_MOTION_DDOT":0},{"OBJECT_NAME":"ONEWEB-0315","OBJECT_ID":"2021-075AC","EPOCH":"2025-09-16T03:16:58.312128","MEAN_MOTION":13.12444133,"ECCENTRICITY":0.00019989,"INCLINATION":87.8899,"RA_OF_ASC_NODE":45.0894,"ARG_OF_PERICENTER":89.6422,"MEAN_ANOMALY":270.4936,"EPHEMERIS_TYPE":0,"CLASSIFICATION_TYPE":"U","NORAD_CAT_ID":49101,"ELEMENT_SET_NO":999,"REV_AT_EPOCH":19922,"BSTAR":-0.0010625406,"MEAN_MOTION_DOT":-3.7e-6,"MEAN_MOTION_DDOT":0},{"OBJECT_NAME":"ONEWEB-0316","OBJECT_ID":"2021-075AD","EPOCH":"2025-09-16T02:13:51.251520","MEAN_MOTION":13.1868696,"ECCENTRICITY":0.00018573,"INCLINATION":87.9193,"RA_OF_ASC_NODE":29.8946,"ARG_OF_PERICENTER":94.127,"MEAN_ANOMALY":266.0075,"EPHEMERIS_TYPE":0,"CLASSIFICATION_TYPE":"U","NORAD_CAT_ID":49102,"ELEMENT_SET_NO":999,"REV_AT_EPOCH":20108,"BSTAR":4.8530711e-5,"MEAN_MOTION_DOT":3.2e-7,"MEAN_MOTION_DDOT":0}]
